"Ariel:Uranus I" "Sol/Uranus"
{
	Class	"moon"
	Texture	"ariel.*"
	# NormalMap	"ariel-normal.*"
	Color	[ 1.0 1.0 0.999 ]
	SemiAxes	[ 581.1 577.9 577.7 ]
	Mass	0.000206480241
	CustomOrbit	"ariel"

	# Overridden by CustomOrbit
	# OrbitFrame
	# {
	#	EclipticJ2000	{ Center "Sol/Uranus" }
	# }
	# EllipticalOrbit
	# {
	#	Epoch	2451545.0  # 2000 Jan 01 12:00
	#	Period	2.520379
	#	SemiMajorAxis	191020
	#	Eccentricity	0.0012
	#	Inclination	97.721321
	#	AscendingNode	167.616776
	#	ArgOfPericenter	43.284123
	#	MeanAnomaly	154.841923
	# }

	BodyFrame	{ EquatorJ2000 {} }
	CustomRotation	"iau-ariel"

	# Overridden by CustomRotation
	# UniformRotation
	# {
	#	Inclination	74.90
	#	AscendingNode	167.43
	#	MeridianAngle	23.78
	# }

	LunarLambert	0.5
	GeomAlbedo	0.53
	BondAlbedo	0.23
	InfoURL	"https://en.wikipedia.org/wiki/Ariel_(moon)"
}

AltSurface "Limit of knowledge" "Sol/Uranus/Ariel"
{
	Texture	"ariel.*"
	OverlayTexure	"ariel-lok-mask.*"
	LunarLambert	0.5
}

"Umbriel:Uranus II" "Sol/Uranus"
{
	Class	"moon"
	Texture	"umbriel.*"
	# NormalMap	"umbriel-normal.*"
	Color	[ 1.0 0.99769 0.99749 ]
	Radius	584.7
	Mass	0.000215756865
	CustomOrbit	"umbriel"

	# Overridden by CustomOrbit
	# OrbitFrame
	# {
	#	EclipticJ2000	{ Center "Sol/Uranus" }
	# }
	# EllipticalOrbit
	# {
	#	Epoch	2451545.0  # 2000 Jan 01 12:00
	#	Period	4.1441772
	#	SemiMajorAxis	266000
	#	Eccentricity	0.0039
	#	Inclination	97.679326
	#	AscendingNode	167.637075
	#	ArgOfPericenter	334.489611
	#	MeanAnomaly	271.690065
	# }

	BodyFrame	{ EquatorJ2000 {} }
	CustomRotation	"iau-umbriel"

	# Overridden by CustomRotation
	# UniformRotation
	# {
	#	Inclination	74.90
	#	AscendingNode	167.43
	#	MeridianAngle	71.95
	# }

	LunarLambert	0.5
	GeomAlbedo	0.26
	BondAlbedo	0.10
	InfoURL	"https://en.wikipedia.org/wiki/Umbriel_(moon)"
}

AltSurface "Limit of knowledge" "Sol/Uranus/Umbriel"
{
	Texture	"umbriel.*"
	OverlayTexure	"umbriel-lok-mask.*"
	LunarLambert	0.5
}

"Titania:Uranus III" "Sol/Uranus"
{
	Class	"moon"
	Texture	"titania.*"
	# NormalMap	"titania-normal.*"
	Color	[ 1.0 0.98945 0.97393 ]
	Radius	788.4
	Mass	0.000578533155
	CustomOrbit	"titania"

	# Overridden by CustomOrbit
	# OrbitFrame
	# {
	#	EclipticJ2000	{ Center "Sol/Uranus" }
	# }
	# EllipticalOrbit
	# {
	#	Epoch	2451545.0  # 2000 Jan 01 12:00
	#	Period	8.706234
	#	SemiMajorAxis	435910
	#	Eccentricity	0.0011
	#	Inclination	97.821207
	#	AscendingNode	167.613219
	#	ArgOfPericenter	203.953805
	#	MeanAnomaly	72.597842
	# }

	BodyFrame	{ EquatorJ2000 {} }
	CustomRotation	"iau-titania"

	# Overridden by CustomRotation
	# UniformRotation
	# {
	#	Inclination	74.90
	#	AscendingNode	167.43
	#	MeridianAngle	102.26
	# }

	LunarLambert	0.5
	GeomAlbedo	0.35
	BondAlbedo	0.17
	InfoURL	"https://en.wikipedia.org/wiki/Titania_(moon)"
}

AltSurface "Limit of knowledge" "Sol/Uranus/Titania"
{
	Texture	"titania.*"
	OverlayTexure	"titania-lok-mask.*"
	LunarLambert	0.5
}

"Oberon:Uranus IV" "Sol/Uranus"
{
	Class	"moon"
	Texture	"oberon.*"
	# NormalMap	"oberon-normal.*"
	Color	[ 1.0 0.98881 0.97178 ]
	Radius	761.4
	Mass	0.000520830543
	CustomOrbit	"oberon"

	# Overridden by CustomOrbit
	# OrbitFrame
	# {
	#	EclipticJ2000	{ Center "Sol/Uranus" }
	# }
	# EllipticalOrbit
	# {
	#	Epoch	2451545.0  # 2000 Jan 01 12:00
	#	Period	13.463234
	#	SemiMajorAxis	583520
	#	Eccentricity	0.0014
	#	Inclination	97.877864
	#	AscendingNode	167.756308
	#	ArgOfPericenter	252.847153
	#	MeanAnomaly	94.662801
	# }

	BodyFrame	{ EquatorJ2000 {} }
	CustomRotation	"iau-oberon"

	# Overridden by CustomRotation
	# UniformRotation
	# {
	#	Inclination	74.90
	#	AscendingNode	167.43
	#	MeridianAngle	173.23
	# }

	LunarLambert	0.5
	GeomAlbedo	0.31
	BondAlbedo	0.14
	InfoURL	"https://en.wikipedia.org/wiki/Oberon_(moon)"
}

AltSurface "Limit of knowledge" "Sol/Uranus/Oberon"
{
	Texture	"oberon.*"
	OverlayTexure	"oberon-lok-mask.*"
	LunarLambert	0.5
}

# Masses from Brozović and Jacobson (2022), AJ 163, 241
# "Orbits of the Irregular Satellites of Uranus and Neptune"
# https://ui.adsabs.harvard.edu/abs/2022AJ....163..241B/abstract
"Neptune" "Sol"
{
	Class	"planet"
	Texture	"neptune.*"
	Color	[ 0.78302 0.91535 1.0 ]
	Radius	24764
	Oblateness	0.0171
	Mass	17.14823976
	Atmosphere
	{
		Height	500
		Mie	0.002
		MieScaleHeight	20.3
		MieAsymmetry	-0.1
		Rayleigh	[ 0.00104 0.00193 0.00400 ]
		Absorption	[ 0.00000 0.00050 0.00100 ]
	}
	CustomOrbit	"vsop87-neptune"

	# Overridden by CustomOrbit
	# EllipticalOrbit
	# {
	#	Epoch	2451545.0  # 2000 Jan 01 12:00
	#	Period	165.087916323222
	#	SemiMajorAxis	30.09392573136601
	#	Eccentricity	0.01120361794639117
	#	Inclination	1.770211285182674
	#	AscendingNode	131.7839137619412
	#	ArgOfPericenter	267.3151968586168
	#	MeanAnomaly	266.1055972475706
	# }

	BodyFrame	{ EclipticJ2000 {} }
	UniformRotation
	{
		Period	16.11
		Inclination	28.03
		AscendingNode	49.24
		MeridianAngle	228.66
	}
	GeomAlbedo	0.409338
	BondAlbedo	0.290
	TempDiscrepancy	25.1  # for 1 bar level
	Rings
	{
		Inner	40900
		Outer	62947
		Texture	"neptune-rings.*"
	}
	InfoURL	"https://en.wikipedia.org/wiki/Neptune"
}

"Proteus:Neptune VIII:S 1989 N 1" "Sol/Neptune"
{
	Class	"moon"
	Mesh	"proteus.cmod"
	Texture	"proteus.*"
	Radius	212
	Mass	0.0000083724
	OrbitFrame
	{
		EclipticJ2000	{ Center "Sol/Neptune" }
	}
	EllipticalOrbit
	{
		Epoch	2447763.5  # 1989 Aug 25
		Period	1.12231477
		SemiMajorAxis	117647
		Eccentricity	0.00053
		Inclination	28.908433
		AscendingNode	48.083589
		ArgOfPericenter	81.195458
		MeanAnomaly	34.162384
	}
	BodyFrame	{ EquatorJ2000 {} }
	UniformRotation
	{
		Period	26.93555448
		Inclination	47.09
		AscendingNode	29.27
		MeridianAngle	93.38
	}
	LunarLambert	0.5
	GeomAlbedo	0.096
	InfoURL	"https://en.wikipedia.org/wiki/Proteus_(moon)"
}

"Triton:Neptune I" "Sol/Neptune"
{
	Class	"moon"
	Texture	"triton.*"
	Color	[ 1.0 0.99024 0.96338 ]
	SemiAxes	[ 1354.6 1352.8 1352.4 ]
	Mass	0.00358389042
	Atmosphere
	{
		Height	32
		Mie	0.0003
		MieScaleHeight	8
		Absorption	[ 0.00200 0.00200 0.00250 ]
	}
	OrbitFrame
	{
		EclipticJ2000	{ Center "Sol/Neptune" }
	}
	EllipticalOrbit
	{
		Epoch	2447763.5  # 1989 Aug 25
		Period	5.8768541
		SemiMajorAxis	354759
		Eccentricity	0.000016
		Inclination	130.909204
		AscendingNode	213.174202
		ArgOfPericenter	278.113474
		MeanAnomaly	349.996104
	}
	BodyFrame	{ EquatorJ2000 {} }
	UniformRotation
	{
		Epoch	2447763.5  # 1989 Aug 25
		Inclination	110.44
		AscendingNode	206.17
		MeridianAngle	77.41
	}
	LunarLambert	0.5
	GeomAlbedo	0.719
	BondAlbedo	0.65
	InfoURL	"https://en.wikipedia.org/wiki/Triton_(moon)"
}

AltSurface "Limit of knowledge" "Sol/Neptune/Triton"
{
	Texture	"triton.*"
	OverlayTexture	"triton-lok-mask.*"
	LunarLambert	0.5
}

